{"fetched_at":"2026-07-21T17:53:07.093Z","source":"https://celestrak.org/NORAD/elements/gp.php?GROUP=planet&FORMAT=JSON","constellation":"pelican","records":[{"OBJECT_NAME":"PELICAN-1","OBJECT_ID":"2023-174AS","EPOCH":"2026-07-20T06:37:31.745568","CLASSIFICATION_TYPE":"U","MEAN_MOTION":15.71998752,"ECCENTRICITY":0.00069171,"INCLINATION":97.4045,"RA_OF_ASC_NODE":303.6671,"ARG_OF_PERICENTER":185.6287,"MEAN_ANOMALY":174.4899,"EPHEMERIS_TYPE":0,"NORAD_CAT_ID":58296,"ELEMENT_SET_NO":999,"REV_AT_EPOCH":15136,"BSTAR":0.000051003943,"MEAN_MOTION_DOT":0.00006525,"MEAN_MOTION_DDOT":0},{"OBJECT_NAME":"PELICAN-2","OBJECT_ID":"2025-009Y","EPOCH":"2026-07-21T03:27:47.170944","CLASSIFICATION_TYPE":"U","MEAN_MOTION":15.40664079,"ECCENTRICITY":0.00027442,"INCLINATION":97.2044,"RA_OF_ASC_NODE":292.6115,"ARG_OF_PERICENTER":109.3169,"MEAN_ANOMALY":250.8375,"EPHEMERIS_TYPE":0,"NORAD_CAT_ID":62631,"ELEMENT_SET_NO":999,"REV_AT_EPOCH":8478,"BSTAR":0.000002132138,"MEAN_MOTION_DOT":7e-8,"MEAN_MOTION_DDOT":0},{"OBJECT_NAME":"PELICAN-3","OBJECT_ID":"2025-188A","EPOCH":"2026-07-21T03:19:37.159392","CLASSIFICATION_TYPE":"U","MEAN_MOTION":15.41338915,"ECCENTRICITY":0.00021271,"INCLINATION":97.1976,"RA_OF_ASC_NODE":277.7898,"ARG_OF_PERICENTER":113.247,"MEAN_ANOMALY":246.9001,"EPHEMERIS_TYPE":0,"NORAD_CAT_ID":65315,"ELEMENT_SET_NO":999,"REV_AT_EPOCH":5054,"BSTAR":0.00016158807,"MEAN_MOTION_DOT":0.00006654,"MEAN_MOTION_DDOT":0},{"OBJECT_NAME":"PELICAN-4","OBJECT_ID":"2025-188B","EPOCH":"2026-07-21T03:52:37.580448","CLASSIFICATION_TYPE":"U","MEAN_MOTION":15.40388216,"ECCENTRICITY":0.0001448,"INCLINATION":97.1982,"RA_OF_ASC_NODE":277.9554,"ARG_OF_PERICENTER":71.9459,"MEAN_ANOMALY":288.1946,"EPHEMERIS_TYPE":0,"NORAD_CAT_ID":65316,"ELEMENT_SET_NO":999,"REV_AT_EPOCH":5054,"BSTAR":0.00015376392,"MEAN_MOTION_DOT":0.00006131,"MEAN_MOTION_DDOT":0},{"OBJECT_NAME":"PELICAN-5","OBJECT_ID":"2025-276B","EPOCH":"2026-07-20T17:21:59.424480","CLASSIFICATION_TYPE":"U","MEAN_MOTION":15.33016399,"ECCENTRICITY":0.00035626,"INCLINATION":97.4074,"RA_OF_ASC_NODE":276.7042,"ARG_OF_PERICENTER":69.5727,"MEAN_ANOMALY":290.5898,"EPHEMERIS_TYPE":0,"NORAD_CAT_ID":66667,"ELEMENT_SET_NO":999,"REV_AT_EPOCH":3565,"BSTAR":0.00035155555,"MEAN_MOTION_DOT":0.00011139,"MEAN_MOTION_DDOT":0},{"OBJECT_NAME":"PELICAN-6","OBJECT_ID":"2025-276AP","EPOCH":"2026-07-20T19:02:27.627648","CLASSIFICATION_TYPE":"U","MEAN_MOTION":15.31624969,"ECCENTRICITY":0.00024057,"INCLINATION":97.3716,"RA_OF_ASC_NODE":276.7409,"ARG_OF_PERICENTER":36.5218,"MEAN_ANOMALY":323.6188,"EPHEMERIS_TYPE":0,"NORAD_CAT_ID":66703,"ELEMENT_SET_NO":999,"REV_AT_EPOCH":3567,"BSTAR":0.00010183903,"MEAN_MOTION_DOT":0.00003032,"MEAN_MOTION_DDOT":0},{"OBJECT_NAME":"PELICAN-7","OBJECT_ID":"2026-100AP","EPOCH":"2026-07-21T00:56:13.769664","CLASSIFICATION_TYPE":"U","MEAN_MOTION":15.23848905,"ECCENTRICITY":0.00032926,"INCLINATION":97.3806,"RA_OF_ASC_NODE":99.3947,"ARG_OF_PERICENTER":79.1315,"MEAN_ANOMALY":281.0293,"EPHEMERIS_TYPE":0,"NORAD_CAT_ID":69017,"ELEMENT_SET_NO":999,"REV_AT_EPOCH":1196,"BSTAR":0.00011791675,"MEAN_MOTION_DOT":0.00002773,"MEAN_MOTION_DDOT":0},{"OBJECT_NAME":"PELICAN-9","OBJECT_ID":"2026-100AR","EPOCH":"2026-07-21T03:37:22.311552","CLASSIFICATION_TYPE":"U","MEAN_MOTION":15.23093062,"ECCENTRICITY":0.00025321,"INCLINATION":97.3514,"RA_OF_ASC_NODE":99.3084,"ARG_OF_PERICENTER":109.2592,"MEAN_ANOMALY":250.8919,"EPHEMERIS_TYPE":0,"NORAD_CAT_ID":69019,"ELEMENT_SET_NO":999,"REV_AT_EPOCH":1197,"BSTAR":0.000065685142,"MEAN_MOTION_DOT":0.00001479,"MEAN_MOTION_DDOT":0}]}
