PELICAN-1               
1 58296U 23174AS  26201.27606187  .00006525  00000+0  51004-4 0  9996
2 58296  97.4045 303.6671 0006917 185.6287 174.4899 15.71998752151369
PELICAN-2               
1 62631U 25009Y   26202.14429596  .00000007  00000+0  21321-5 0  9996
2 62631  97.2044 292.6115 0002744 109.3169 250.8375 15.40664079 84787
PELICAN-3               
1 65315U 25188A   26202.13862453  .00006654  00000+0  16159-3 0  9993
2 65315  97.1976 277.7898 0002127 113.2470 246.9001 15.41338915 50545
PELICAN-4               
1 65316U 25188B   26202.16154607  .00006131  00000+0  15376-3 0  9992
2 65316  97.1982 277.9554 0001448  71.9459 288.1946 15.40388216 50540
PELICAN-5               
1 66667U 25276B   26201.72360445  .00011139  00000+0  35156-3 0  9992
2 66667  97.4074 276.7042 0003562  69.5727 290.5898 15.33016399 35654
PELICAN-6               
1 66703U 25276AP  26201.79337532  .00003032  00000+0  10184-3 0  9998
2 66703  97.3716 276.7409 0002405  36.5218 323.6188 15.31624969 35676
PELICAN-7               
1 69017U 26100AP  26202.03904826  .00002773  00000+0  11792-3 0  9997
2 69017  97.3806  99.3947 0003292  79.1315 281.0293 15.23848905 11968
PELICAN-9               
1 69019U 26100AR  26202.15095268  .00001479  00000+0  65685-4 0  9996
2 69019  97.3514  99.3084 0002532 109.2592 250.8919 15.23093062 11972
